{
  "type": "FeatureCollection",
  "features": [
    {
      "type": "Feature",
      "geometry": { "type": "Point", "coordinates": [-117.1611, 32.7157] },
      "properties": {
        "parcel_id": "SD-0001",
        "apn": "535-241-01-00",
        "address": "1200 3rd Ave, San Diego, CA 92101",
        "zoning": "RM-3-7",
        "lot_size_sqft": 5200,
        "existing_units": 1,
        "max_allowed_units": 12,
        "neighborhood": "Downtown / Cortez Hill"
      }
    },
    {
      "type": "Feature",
      "geometry": { "type": "Point", "coordinates": [-117.1495, 32.7222] },
      "properties": {
        "parcel_id": "SD-0002",
        "apn": "452-681-14-00",
        "address": "2740 Ray St, San Diego, CA 92104",
        "zoning": "RM-1-1",
        "lot_size_sqft": 6800,
        "existing_units": 1,
        "max_allowed_units": 4,
        "neighborhood": "North Park"
      }
    },
    {
      "type": "Feature",
      "geometry": { "type": "Point", "coordinates": [-117.1719, 32.7075] },
      "properties": {
        "parcel_id": "SD-0003",
        "apn": "533-112-09-00",
        "address": "455 Island Ave, San Diego, CA 92101",
        "zoning": "CCPD-ER",
        "lot_size_sqft": 9400,
        "existing_units": 0,
        "max_allowed_units": 40,
        "neighborhood": "East Village"
      }
    },
    {
      "type": "Feature",
      "geometry": { "type": "Point", "coordinates": [-117.1550, 32.7382] },
      "properties": {
        "parcel_id": "SD-0004",
        "apn": "441-320-05-00",
        "address": "3510 30th St, San Diego, CA 92104",
        "zoning": "RM-2-5",
        "lot_size_sqft": 4300,
        "existing_units": 1,
        "max_allowed_units": 6,
        "neighborhood": "South Park"
      }
    },
    {
      "type": "Feature",
      "geometry": { "type": "Point", "coordinates": [-117.1638, 32.6980] },
      "properties": {
        "parcel_id": "SD-0005",
        "apn": "535-490-22-00",
        "address": "1801 National Ave, San Diego, CA 92113",
        "zoning": "IL-2-1",
        "lot_size_sqft": 12500,
        "existing_units": 0,
        "max_allowed_units": 18,
        "neighborhood": "Barrio Logan"
      }
    },
    {
      "type": "Feature",
      "geometry": { "type": "Point", "coordinates": [-117.1830, 32.7412] },
      "properties": {
        "parcel_id": "SD-0006",
        "apn": "424-750-11-00",
        "address": "3902 Mission Blvd, San Diego, CA 92109",
        "zoning": "RM-1-1",
        "lot_size_sqft": 3600,
        "existing_units": 2,
        "max_allowed_units": 3,
        "neighborhood": "Mission Beach"
      }
    },
    {
      "type": "Feature",
      "geometry": { "type": "Point", "coordinates": [-117.1290, 32.7550] },
      "properties": {
        "parcel_id": "SD-0007",
        "apn": "467-210-30-00",
        "address": "4680 El Cajon Blvd, San Diego, CA 92115",
        "zoning": "CC-5-4",
        "lot_size_sqft": 8100,
        "existing_units": 1,
        "max_allowed_units": 20,
        "neighborhood": "City Heights"
      }
    },
    {
      "type": "Feature",
      "geometry": { "type": "Point", "coordinates": [-117.2010, 32.7490] },
      "properties": {
        "parcel_id": "SD-0008",
        "apn": "423-050-07-00",
        "address": "1275 Rosecrans St, San Diego, CA 92106",
        "zoning": "CC-3-9",
        "lot_size_sqft": 15200,
        "existing_units": 0,
        "max_allowed_units": 60,
        "neighborhood": "Point Loma"
      }
    },
    {
      "type": "Feature",
      "geometry": { "type": "Point", "coordinates": [-117.1105, 32.7040] },
      "properties": {
        "parcel_id": "SD-0009",
        "apn": "458-630-19-00",
        "address": "5010 University Ave, San Diego, CA 92105",
        "zoning": "CN-1-2",
        "lot_size_sqft": 5600,
        "existing_units": 1,
        "max_allowed_units": 10,
        "neighborhood": "City Heights East"
      }
    },
    {
      "type": "Feature",
      "geometry": { "type": "Point", "coordinates": [-117.1450, 32.6890] },
      "properties": {
        "parcel_id": "SD-0010",
        "apn": "545-870-02-00",
        "address": "2201 Main St, San Diego, CA 92113",
        "zoning": "IL-3-1",
        "lot_size_sqft": 20300,
        "existing_units": 0,
        "max_allowed_units": 80,
        "neighborhood": "Southcrest"
      }
    }
  ]
}
